{
  "norad_id": 54087,
  "name": "STARLINK-5184",
  "history": [
    {
      "epoch": "2026-03-28T20:41:30.702624Z",
      "apogee_km": 540.6049542624096,
      "perigee_km": 538.8758999782758,
      "latitude_deg": 5.5773283208975005e-05,
      "longitude_deg": 111.03759338730853,
      "height_km": 540.6205745294,
      "semi_major_axis_km": 6917.877427120343,
      "eccentricity": 0.00012497,
      "inclination_deg": 53.2173,
      "raan_deg": 247.692,
      "arg_perigee_deg": 88.9599,
      "mean_anomaly_deg": 271.1537,
      "mean_motion_rev_day": 15.08840969
    }
  ]
}